[{"OBJECT_NAME":"YAOGAN-39 05C","OBJECT_ID":"2023-194C","EPOCH":"2026-03-09T22:48:54.340416","MEAN_MOTION":15.16682362,"ECCENTRICITY":0.00139818,"INCLINATION":34.9933,"RA_OF_ASC_NODE":339.8218,"ARG_OF_PERICENTER":233.6352,"MEAN_ANOMALY":126.3071,"EPHEMERIS_TYPE":0,"CLASSIFICATION_TYPE":"U","NORAD_CAT_ID":58559,"ELEMENT_SET_NO":999,"REV_AT_EPOCH":12504,"BSTAR":0.0003860733,"MEAN_MOTION_DOT":7.728e-5,"MEAN_MOTION_DDOT":0},{"OBJECT_NAME":"FLOCK 4H-9","OBJECT_ID":"2025-276AY","EPOCH":"2026-03-09T17:17:17.232576","MEAN_MOTION":15.19128409,"ECCENTRICITY":0.00025136,"INCLINATION":97.4289,"RA_OF_ASC_NODE":144.0635,"ARG_OF_PERICENTER":350.5298,"MEAN_ANOMALY":9.5889,"EPHEMERIS_TYPE":0,"CLASSIFICATION_TYPE":"U","NORAD_CAT_ID":66712,"ELEMENT_SET_NO":999,"REV_AT_EPOCH":1532,"BSTAR":0.00033915834,"MEAN_MOTION_DOT":7.058e-5,"MEAN_MOTION_DDOT":0}]
